{"type": "FeatureCollection", "features": [ {"type": "Feature", "properties": {"norad_id": 33492, "name": "GOSAT (IBUKI)", "group": "resource", "lat": 66.56403574934086, "lon": -75.47572414865725, "alt_km": 661.8007625069176, "timestamp": "2025-12-02T15:49:06.839558+00:00", "meta": {"OBJECT_NAME": "GOSAT (IBUKI)", "OBJECT_ID": "2009-002A", "EPOCH": "2025-12-02T07:07:41.344320", "MEAN_MOTION": 14.67547932, "ECCENTRICITY": 9.941e-05, "INCLINATION": 98.0766, "RA_OF_ASC_NODE": 85.0456, "ARG_OF_PERICENTER": 83.9831, "MEAN_ANOMALY": 276.1487, "EPHEMERIS_TYPE": 0, "CLASSIFICATION_TYPE": "U", "NORAD_CAT_ID": 33492, "ELEMENT_SET_NO": 999, "REV_AT_EPOCH": 90258, "BSTAR": 0.00023549334, "MEAN_MOTION_DOT": 1.288e-05, "MEAN_MOTION_DDOT": 0}, "tle": {"line1": "1 33492U 09002A   25336.29700630  .00001288  00000+0  23549-3 0  9992", "line2": "2 33492  98.0766  85.0456 0000994  83.9831 276.1487 14.67547932902588"}}, "geometry": {"type": "Point", "coordinates": [-75.47572414865725, 66.56403574934086]}}, {"type": "Feature", "properties": {"norad_id": 35681, "name": "DEIMOS-1", "group": "resource", "lat": -75.68445799622894, "lon": 169.8183911876474, "alt_km": 654.581839392672, "timestamp": "2025-12-02T15:49:06.839569+00:00", "meta": {"OBJECT_NAME": "DEIMOS-1", "OBJECT_ID": "2009-041A", "EPOCH": "2025-12-02T08:01:49.848672", "MEAN_MOTION": 14.7492654, "ECCENTRICITY": 0.00026654, "INCLINATION": 97.7145, "RA_OF_ASC_NODE": 137.4228, "ARG_OF_PERICENTER": 98.4794, "MEAN_ANOMALY": 261.6718, "EPHEMERIS_TYPE": 0, "CLASSIFICATION_TYPE": "U", "NORAD_CAT_ID": 35681, "ELEMENT_SET_NO": 999, "REV_AT_EPOCH": 87786, "BSTAR": 0.00015613794, "MEAN_MOTION_DOT": 1.001e-05, "MEAN_MOTION_DDOT": 0}, "tle": {"line1": "1 35681U 09041A   25336.33460473  .00001001  00000+0  15614-3 0  9997", "line2": "2 35681  97.7145 137.4228 0002665  98.4794 261.6718 14.74926540877864"}}, "geometry": {"type": "Point", "coordinates": [169.8183911876474, -75.68445799622894]}}, {"type": "Feature", "properties": {"norad_id": 35682, "name": "DUBAISAT-1", "group": "resource", "lat": -49.118134472457704, "lon": -81.83589469408568, "alt_km": 656.9410284151327, "timestamp": "2025-12-02T15:49:06.839579+00:00", "meta": {"OBJECT_NAME": "DUBAISAT-1", "OBJECT_ID": "2009-041B", "EPOCH": "2025-12-02T06:38:11.473152", "MEAN_MOTION": 14.74555132, "ECCENTRICITY": 0.00102314, "INCLINATION": 97.9785, "RA_OF_ASC_NODE": 107.1112, "ARG_OF_PERICENTER": 350.1032, "MEAN_ANOMALY": 9.9974, "EPHEMERIS_TYPE": 0, "CLASSIFICATION_TYPE": "U", "NORAD_CAT_ID": 35682, "ELEMENT_SET_NO": 999, "REV_AT_EPOCH": 87607, "BSTAR": 0.00025547787, "MEAN_MOTION_DOT": 1.652e-05, "MEAN_MOTION_DDOT": 0}, "tle": {"line1": "1 35682U 09041B   25336.27652168  .00001652  00000+0  25548-3 0  9994", "line2": "2 35682  97.9785 107.1112 0010231 350.1032   9.9974 14.74555132876078"}}, "geometry": {"type": "Point", "coordinates": [-81.83589469408568, -49.118134472457704]}}, {"type": "Feature", "properties": {"norad_id": 35931, "name": "OCEANSAT-2", "group": "resource", "lat": -62.50784105268112, "lon": 142.14808525176258, "alt_km": 914.2622255174656, "timestamp": "2025-12-02T15:49:06.839590+00:00", "meta": {"OBJECT_NAME": "OCEANSAT-2", "OBJECT_ID": "2009-051A", "EPOCH": "2025-12-02T07:47:46.448160", "MEAN_MOTION": 13.99626831, "ECCENTRICITY": 0.00166567, "INCLINATION": 98.2232, "RA_OF_ASC_NODE": 337.9813, "ARG_OF_PERICENTER": 72.0793, "MEAN_ANOMALY": 288.2188, "EPHEMERIS_TYPE": 0, "CLASSIFICATION_TYPE": "U", "NORAD_CAT_ID": 35931, "ELEMENT_SET_NO": 999, "REV_AT_EPOCH": 85179, "BSTAR": -7.8905653e-05, "MEAN_MOTION_DOT": -1.53e-06, "MEAN_MOTION_DDOT": 0}, "tle": {"line1": "1 35931U 09051A   25336.32484315 -.00000153  00000+0 -78906-4 0  9999", "line2": "2 35931  98.2232 337.9813 0016656  72.0793 288.2188 13.99626831851790"}}, "geometry": {"type": "Point", "coordinates": [142.14808525176258, -62.50784105268112]}}, {"type": "Feature", "properties": {"norad_id": 35946, "name": "WORLDVIEW-2 (WV-2)", "group": "resource", "lat": 64.92226836041041, "lon": 29.29945824345574, "alt_km": 756.3941716054642, "timestamp": "2025-12-02T15:49:06.839600+00:00", "meta": {"OBJECT_NAME": "WORLDVIEW-2 (WV-2)", "OBJECT_ID": "2009-055A", "EPOCH": "2025-12-02T05:29:21.270624", "MEAN_MOTION": 14.37644788, "ECCENTRICITY": 0.00054406, "INCLINATION": 98.4773, "RA_OF_ASC_NODE": 47.4599, "ARG_OF_PERICENTER": 92.0204, "MEAN_ANOMALY": 268.1606, "EPHEMERIS_TYPE": 0, "CLASSIFICATION_TYPE": "U", "NORAD_CAT_ID": 35946, "ELEMENT_SET_NO": 999, "REV_AT_EPOCH": 84734, "BSTAR": 0.00010167271, "MEAN_MOTION_DOT": 2.62e-06, "MEAN_MOTION_DDOT": 0}, "tle": {"line1": "1 35946U 09055A   25336.22871841  .00000262  00000+0  10167-3 0  9995", "line2": "2 35946  98.4773  47.4599 0005440  92.0204 268.1606 14.37644788847342"}}, "geometry": {"type": "Point", "coordinates": [29.29945824345574, 64.92226836041041]}}, {"type": "Feature", "properties": {"norad_id": 36036, "name": "SMOS", "group": "resource", "lat": 25.609040807181486, "lon": 157.77573585979383, "alt_km": 757.8044850695824, "timestamp": "2025-12-02T15:49:06.839611+00:00", "meta": {"OBJECT_NAME": "SMOS", "OBJECT_ID": "2009-059A", "EPOCH": "2025-12-02T02:21:20.122848", "MEAN_MOTION": 14.39786553, "ECCENTRICITY": 0.00010561, "INCLINATION": 98.4384, "RA_OF_ASC_NODE": 161.3035, "ARG_OF_PERICENTER": 72.1063, "MEAN_ANOMALY": 288.024, "EPHEMERIS_TYPE": 0, "CLASSIFICATION_TYPE": "U", "NORAD_CAT_ID": 36036, "ELEMENT_SET_NO": 999, "REV_AT_EPOCH": 84509, "BSTAR": 0.00016854157, "MEAN_MOTION_DOT": 4.85e-06, "MEAN_MOTION_DDOT": 0}, "tle": {"line1": "1 36036U 09059A   25336.09814957  .00000485  00000+0  16854-3 0  9996", "line2": "2 36036  98.4384 161.3035 0001056  72.1063 288.0240 14.39786553845097"}}, "geometry": {"type": "Point", "coordinates": [157.77573585979383, 25.609040807181486]}}, {"type": "Feature", "properties": {"norad_id": 36110, "name": "YAOGAN-7", "group": "resource", "lat": -80.53712403357666, "lon": -83.66044308832083, "alt_km": 631.1495333742314, "timestamp": "2025-12-02T15:49:06.839621+00:00", "meta": {"OBJECT_NAME": "YAOGAN-7", "OBJECT_ID": "2009-069A", "EPOCH": "2025-12-02T06:27:01.181952", "MEAN_MOTION": 14.7770645, "ECCENTRICITY": 0.0023847, "INCLINATION": 98.0304, "RA_OF_ASC_NODE": 218.0628, "ARG_OF_PERICENTER": 316.626, "MEAN_ANOMALY": 43.3073, "EPHEMERIS_TYPE": 0, "CLASSIFICATION_TYPE": "U", "NORAD_CAT_ID": 36110, "ELEMENT_SET_NO": 999, "REV_AT_EPOCH": 86054, "BSTAR": 0.00014376406, "MEAN_MOTION_DOT": 9.81e-06, "MEAN_MOTION_DDOT": 0}, "tle": {"line1": "1 36110U 09069A   25336.26876368  .00000981  00000+0  14376-3 0  9991", "line2": "2 36110  98.0304 218.0628 0023847 316.6260  43.3073 14.77706450860546"}}, "geometry": {"type": "Point", "coordinates": [-83.66044308832083, -80.53712403357666]}}, {"type": "Feature", "properties": {"norad_id": 36605, "name": "TANDEM-X", "group": "resource", "lat": 77.51174700982055, "lon": -161.62924092414687, "alt_km": 499.91223680002804, "timestamp": "2025-12-02T15:49:06.839632+00:00", "meta": {"OBJECT_NAME": "TANDEM-X", "OBJECT_ID": "2010-030A", "EPOCH": "2025-12-01T15:40:02.616384", "MEAN_MOTION": 15.19150166, "ECCENTRICITY": 0.0001799, "INCLINATION": 97.4445, "RA_OF_ASC_NODE": 341.1948, "ARG_OF_PERICENTER": 94.6739, "MEAN_ANOMALY": 265.4701, "EPHEMERIS_TYPE": 0, "CLASSIFICATION_TYPE": "U", "NORAD_CAT_ID": 36605, "ELEMENT_SET_NO": 999, "REV_AT_EPOCH": 85665, "BSTAR": 8.3295316e-05, "MEAN_MOTION_DOT": 1.682e-05, "MEAN_MOTION_DDOT": 0}, "tle": {"line1": "1 36605U 10030A   25335.65280806  .00001682  00000+0  83295-4 0  9994", "line2": "2 36605  97.4445 341.1948 0001799  94.6739 265.4701 15.19150166856659"}}, "geometry": {"type": "Point", "coordinates": [-161.62924092414687, 77.51174700982055]}}, {"type": "Feature", "properties": {"norad_id": 36795, "name": "CARTOSAT-2B", "group": "resource", "lat": 14.770653640329362, "lon": -151.9160924319778, "alt_km": 629.3494512031812, "timestamp": "2025-12-02T15:49:06.839647+00:00", "meta": {"OBJECT_NAME": "CARTOSAT-2B", "OBJECT_ID": "2010-035A", "EPOCH": "2025-12-02T06:57:22.521600", "MEAN_MOTION": 14.78762065, "ECCENTRICITY": 0.00128565, "INCLINATION": 97.7868, "RA_OF_ASC_NODE": 25.6589, "ARG_OF_PERICENTER": 108.2363, "MEAN_ANOMALY": 252.0249, "EPHEMERIS_TYPE": 0, "CLASSIFICATION_TYPE": "U", "NORAD_CAT_ID": 36795, "ELEMENT_SET_NO": 999, "REV_AT_EPOCH": 83075, "BSTAR": 0.00015469459, "MEAN_MOTION_DOT": 1.088e-05, "MEAN_MOTION_DDOT": 0}, "tle": {"line1": "1 36795U 10035A   25336.28984400  .00001088  00000+0  15469-3 0  9997", "line2": "2 36795  97.7868  25.6589 0012856 108.2363 252.0249 14.78762065830750"}}, "geometry": {"type": "Point", "coordinates": [-151.9160924319778, 14.770653640329362]}}, {"type": "Feature", "properties": {"norad_id": 36834, "name": "YAOGAN-10", "group": "resource", "lat": 33.92197011287201, "lon": -8.813348899641321, "alt_km": 612.1965642975674, "timestamp": "2025-12-02T15:49:06.839657+00:00", "meta": {"OBJECT_NAME": "YAOGAN-10", "OBJECT_ID": "2010-038A", "EPOCH": "2025-12-02T07:59:04.790112", "MEAN_MOTION": 14.84546069, "ECCENTRICITY": 0.00015078, "INCLINATION": 97.9151, "RA_OF_ASC_NODE": 356.2314, "ARG_OF_PERICENTER": 84.9225, "MEAN_ANOMALY": 6.0763, "EPHEMERIS_TYPE": 0, "CLASSIFICATION_TYPE": "U", "NORAD_CAT_ID": 36834, "ELEMENT_SET_NO": 999, "REV_AT_EPOCH": 82799, "BSTAR": 0.00014623612, "MEAN_MOTION_DOT": 1.18e-05, "MEAN_MOTION_DDOT": 0}, "tle": {"line1": "1 36834U 10038A   25336.33269433  .00001180  00000+0  14624-3 0  9997", "line2": "2 36834  97.9151 356.2314 0001507  84.9225   6.0763 14.84546069827999"}}, "geometry": {"type": "Point", "coordinates": [-8.813348899641321, 33.92197011287201]}}]}